0 YAOGAN 7 DEB
1 38266U 09069C   13281.48675557  .00001061  00000-0  41112-3 0  2028
2 38266 097.9038 286.4476 0273147 064.3201 086.1455 14.13201969192670
0 YAOGAN 7 DEB
1 38266U 09069C   13283.23839126  .00001253  00000-0  48322-3 0  2031
2 38266 097.9036 287.9979 0273054 059.2277 357.6368 14.13210644192922
0 YAOGAN 7 DEB
1 38266U 09069C   13285.99943233  .00001441  00000-0  55396-3 0  2051
2 38266 097.9031 290.4416 0272913 051.2017 004.5866 14.13216535193319
0 YAOGAN 7 DEB
1 38266U 09069C   13287.50506925  .00001659  00000-0  63576-3 0  2064
2 38266 097.9030 291.7742 0272796 046.8205 104.6292 14.13221423193522
0 YAOGAN 7 DEB
1 38266U 09069C   13290.24731601  .00001845  00000-0  70553-3 0  2071
2 38266 097.9032 294.2009 0272594 038.8323 016.1127 14.13234834193902
0 YAOGAN 7 DEB
1 38266U 09069C   13292.30099719  .00002028  00000-0  77426-3 0  2088
2 38266 097.9035 296.0182 0272464 032.8530 024.5244 14.13241535194200
0 YAOGAN 7 DEB
1 38266U 09069C   13294.28444597  .00002250  00000-0  85760-3 0  2093
2 38266 097.9037 297.7736 0272313 027.0778 035.6698 14.13249772194485
